{"fetched_at":"2026-04-08T17:04:03Z","count":12288,"tles":[{"name":"STARLINK-37244","line1":"1 68529U 26068X   26097.55471766 -.00040202  11563-4 -10385-3 0  9997","line2":"2 68529  53.1610   4.6211 0002087 230.7659 129.3184 15.92724325  1235","category":"Starlink"}]}