{
  "norad_id": 68529,
  "name": "STARLINK-37244",
  "history": [
    {
      "epoch": "2026-04-07T13:18:47.605824Z",
      "apogee_km": 296.0554781020219,
      "perigee_km": 293.2702514384673,
      "latitude_deg": 1.7720079484267563e-05,
      "longitude_deg": -30.90718673205843,
      "height_km": 296.4694703096233,
      "semi_major_axis_km": 6672.799864770244,
      "eccentricity": 0.0002087,
      "inclination_deg": 53.161,
      "raan_deg": 4.6211,
      "arg_perigee_deg": 230.7659,
      "mean_anomaly_deg": 129.3184,
      "mean_motion_rev_day": 15.92724325
    }
  ]
}